STARLINK-1830
1 46727U 20073BK  26061.16314515  .00111721  00000+0  17307-2 0  9991
2 46727  53.0457 219.7405 0002020 120.4842 239.6367 15.53198268296781
STARLINK-2083
1 47676U 21012BJ  26061.13330453  .00057550  00000+0  90007-3 0  9993
2 47676  53.0529 318.1773 0008438 130.1962 229.9787 15.53199613280895
STARLINK-2582
1 48460U 21040AJ  26061.00002315  .00091618  00000+0  14248-2 0  9990
2 48460  53.0591 167.5486 0002595 306.8552 178.2303 15.53187023  5918
